NORAD_CAT_ID,OBJECT_NAME,OBJECT_TYPE,EPOCH,MEAN_MOTION,ECCENTRICITY,INCLINATION,RA_OF_ASC_NODE,ARG_OF_PERICENTER,MEAN_ANOMALY,BSTAR,MEAN_MOTION_DOT,MEAN_MOTION_DDOT,TLE_LINE0,TLE_LINE1,TLE_LINE2,SEMIMAJOR_AXIS,PERIOD,APOGEE,PERIGEE,DECAYED
55932.0,STARLINK-5848,PAYLOAD,2023-11-05 04:46:55,14.98257579,0.0002707,70.0017,261.2575,263.6485,96.4366,-0.00079383,-9.534e-05,0.0,0 STARLINK-5848,1 55932U 23037U   23309.19924858 -.00009534  00000-0 -79383-3 0  9998,2 55932  70.0017 261.2575 0002707 263.6485  96.4366 14.98257579 36672,6950.417,96.112,574.163,570.4,0.0
55932.0,STARLINK-5848,PAYLOAD,2023-11-05 06:22:56,14.98346902,0.0003138,70.0013,261.0888,257.4517,102.6291,0.0001886,2.159e-05,0.0,0 STARLINK-5848,1 55932U 23037U   23309.26592934  .00002159  00000-0  18860-3 0  9999,2 55932  70.0013 261.0888 0003138 257.4517 102.6291 14.98346902 36686,6950.141,96.106,574.187,569.825,0.0
55932.0,STARLINK-5848,PAYLOAD,2023-11-05 14:23:37,14.98337142,0.0002819,70.0031,260.2479,276.5416,83.5422,4.3618e-05,4.28e-06,0.0,0 STARLINK-5848,1 55932U 23037U   23309.59973935  .00000428  00000-0  43618-4 0  9996,2 55932  70.0031 260.2479 0002819 276.5416  83.5422 14.98337142 36395,6950.171,96.107,573.995,570.077,0.0
55932.0,STARLINK-5848,PAYLOAD,2023-11-05 22:24:17,14.98332613,0.0002868,70.0012,259.4074,271.3083,88.7747,2.1882e-05,1.68e-06,0.0,0 STARLINK-5848,1 55932U 23037U   23309.93354147  .00000168  00000-0  21882-4 0  9992,2 55932  70.0012 259.4074 0002868 271.3083  88.7747 14.98332613 36443,6950.185,96.107,574.043,570.056,0.0
55932.0,STARLINK-5848,PAYLOAD,2023-11-06 03:12:40,14.98356958,0.0002453,70.0013,258.9,269.9616,90.1262,0.00033277,3.882e-05,0.0,0 STARLINK-5848,1 55932U 23037U   23310.13379724  .00003882  00000-0  33277-3 0  9990,2 55932  70.0013 258.9000 0002453 269.9616  90.1262 14.98356958 36810,6950.11,96.105,573.679,570.27,0.0
55932.0,STARLINK-5848,PAYLOAD,2023-11-06 14:25:38,14.98328258,0.0002296,70.0019,257.7215,286.338,73.7526,1.2463e-05,5.6e-07,0.0,0 STARLINK-5848,1 55932U 23037U   23310.60114199  .00000056  00000-0  12463-4 0  9990,2 55932  70.0019 257.7215 0002296 286.3380  73.7526 14.98328258 36549,6950.198,96.107,573.659,570.468,0.0
55932.0,STARLINK-5848,PAYLOAD,2023-11-06 22:26:22,14.98288759,0.0003151,70.0006,256.8817,278.2787,81.8015,-0.00042547,-5.161e-05,0.0,0 STARLINK-5848,1 55932U 23037U   23310.93497882 -.00005161  00000-0 -42547-3 0  9998,2 55932  70.0006 256.8817 0003151 278.2787  81.8015 14.98288759 36594,6950.32,96.11,574.375,569.995,0.0
55932.0,STARLINK-5848,PAYLOAD,2023-11-07 03:14:46,14.98297304,0.0002812,70.0007,256.3756,278.1862,81.8978,-0.00038013,-4.622e-05,0.0,0 STARLINK-5848,1 55932U 23037U   23311.13525686 -.00004622  00000-0 -38013-3 0  9999,2 55932  70.0007 256.3756 0002812 278.1862  81.8978 14.98297304 36963,6950.294,96.109,574.113,570.205,0.0
55932.0,STARLINK-5848,PAYLOAD,2023-11-07 06:27:02,14.98300814,0.0002616,70.0014,256.0386,277.1789,82.9073,-0.00030615,-3.741e-05,0.0,0 STARLINK-5848,1 55932U 23037U   23311.26877491 -.00003741  00000-0 -30615-3 0  9998,2 55932  70.0014 256.0386 0002616 277.1789  82.9073 14.98300814 36640,6950.283,96.109,573.966,570.33,0.0
55932.0,STARLINK-5848,PAYLOAD,2023-11-08 03:16:45,14.98328461,0.0002338,70.001,253.8488,279.2131,80.8764,-0.00014453,-1.817e-05,0.0,0 STARLINK-5848,1 55932U 23037U   23312.13664053 -.00001817  00000-0 -14453-3 0  9997,2 55932  70.0010 253.8488 0002338 279.2131  80.8764 14.98328461 37114,6950.198,96.107,573.688,570.438,0.0
55932.0,STARLINK-5848,PAYLOAD,2023-11-08 06:29:01,14.98327817,0.0002015,70.0027,253.5158,263.5188,96.5742,-3.5761e-05,-5.19e-06,0.0,0 STARLINK-5848,1 55932U 23037U   23312.27015775 -.00000519  00000-0 -35761-4 0  9997,2 55932  70.0027 253.5158 0002015 263.5188  96.5742 14.98327817 36790,6950.2,96.107,573.465,570.664,0.0
55932.0,STARLINK-5848,PAYLOAD,2023-11-08 22:30:21,14.98319527,0.000267,70.0016,251.8317,283.7218,76.3644,0.00043043,5.045e-05,0.0,0 STARLINK-5848,1 55932U 23037U   23312.93774967  .00005045  00000-0  43043-3 0  9993,2 55932  70.0016 251.8317 0002670 283.7218  76.3644 14.98319527 36898,6950.225,96.108,573.946,570.235,0.0
55932.0,STARLINK-5848,PAYLOAD,2023-11-09 03:18:45,14.98324934,0.0002554,70.0016,251.3279,274.9328,85.154,0.0004317,5.061e-05,0.0,0 STARLINK-5848,1 55932U 23037U   23313.13802684  .00005061  00000-0  43170-3 0  9993,2 55932  70.0016 251.3279 0002554 274.9328  85.1540 14.98324934 37268,6950.209,96.107,573.849,570.298,0.0
55932.0,STARLINK-5848,PAYLOAD,2023-11-09 06:31:01,14.98328678,0.0002249,70.0018,250.9915,256.1362,103.9547,0.00043778,5.134e-05,0.0,0 STARLINK-5848,1 55932U 23037U   23313.27154391  .00005134  00000-0  43778-3 0  9998,2 55932  70.0018 250.9915 0002249 256.1362 103.9547 14.98328678 36942,6950.197,96.107,573.625,570.499,0.0
55932.0,STARLINK-5848,PAYLOAD,2023-11-09 22:32:22,14.98334818,0.0003038,70.0011,249.3084,276.0313,84.05,8.321e-06,6e-08,0.0,0 STARLINK-5848,1 55932U 23037U   23313.93915120  .00000006  00000-0  83210-5 0  9996,2 55932  70.0011 249.3084 0003038 276.0313  84.0500 14.98334818 37041,6950.178,96.107,574.154,569.932,0.0
55932.0,STARLINK-5848,PAYLOAD,2023-11-10 03:20:46,14.98338868,0.0002887,70.0005,248.8017,272.2239,87.8589,1.6138e-05,1e-06,0.0,0 STARLINK-5848,1 55932U 23037U   23314.13942693  .00000100  00000-0  16138-4 0  9993,2 55932  70.0005 248.8017 0002887 272.2239  87.8589 14.98338868 37418,6950.165,96.106,574.037,570.024,0.0
55932.0,STARLINK-5848,PAYLOAD,2023-11-10 12:57:35,14.98332457,0.0002183,70.0036,247.7893,295.3691,64.7241,-8.1753e-05,-1.068e-05,0.0,0 STARLINK-5848,1 55932U 23037U   23314.53999480 -.00001068  00000-0 -81753-4 0  9994,2 55932  70.0036 247.7893 0002183 295.3691  64.7241 14.98332457 37135,6950.185,96.107,573.568,570.533,0.0
55932.0,STARLINK-5848,PAYLOAD,2023-11-10 22:34:23,14.98336315,0.0002832,70.0011,246.7823,271.1882,88.8952,-0.00017421,-2.171e-05,0.0,0 STARLINK-5848,1 55932U 23037U   23314.94054913 -.00002171  00000-0 -17421-3 0  9998,2 55932  70.0011 246.7823 0002832 271.1882  88.8952 14.98336315 37194,6950.173,96.107,574.007,570.07,0.0
55932.0,STARLINK-5848,PAYLOAD,2023-11-11 03:22:47,14.98337086,0.0002736,70.0011,246.2761,273.2425,86.8421,-0.00014817,-1.861e-05,0.0,0 STARLINK-5848,1 55932U 23037U   23315.14082700 -.00001861  00000-0 -14817-3 0  9997,2 55932  70.0011 246.2761 0002736 273.2425  86.8421 14.98337086 37565,6950.171,96.107,573.938,570.134,0.0
55932.0,STARLINK-5848,PAYLOAD,2023-11-11 12:59:35,14.98338185,0.0002779,70.0014,245.2682,275.3278,84.7563,-0.00019885,-2.465e-05,0.0,0 STARLINK-5848,1 55932U 23037U   23315.54138568 -.00002465  00000-0 -19885-3 0  9996,2 55932  70.0014 245.2682 0002779 275.3278  84.7563 14.98338185 37289,6950.168,96.106,573.964,570.101,0.0
55932.0,STARLINK-5848,PAYLOAD,2023-11-11 21:00:16,14.98328616,0.0002801,70.0011,244.4264,269.0553,91.0285,-5.761e-05,-7.8e-06,0.0,0 STARLINK-5848,1 55932U 23037U   23315.87518735 -.00000780  00000-0 -57610-4 0  9997,2 55932  70.0011 244.4264 0002801 269.0553  91.0285 14.98328616 37331,6950.197,96.107,574.009,570.115,0.0
55932.0,STARLINK-5848,PAYLOAD,2023-11-12 03:24:48,14.98332071,0.0002854,70.0006,243.751,267.7516,92.3316,-4.6811e-05,-6.51e-06,0.0,0 STARLINK-5848,1 55932U 23037U   23316.14222458 -.00000651  00000-0 -46811-4 0  9990,2 55932  70.0006 243.7510 0002854 267.7516  92.3316 14.98332071 37714,6950.186,96.107,574.035,570.068,0.0
55932.0,STARLINK-5848,PAYLOAD,2023-11-12 13:01:36,14.98335699,0.0002891,70.0007,242.7412,271.7925,88.2903,-9.2898e-05,-1.201e-05,0.0,0 STARLINK-5848,1 55932U 23037U   23316.54278289 -.00001201  00000-0 -92898-4 0  9995,2 55932  70.0007 242.7412 0002891 271.7925  88.2903 14.98335699 37439,6950.175,96.107,574.05,570.031,0.0
55932.0,STARLINK-5848,PAYLOAD,2023-11-12 22:38:25,14.98321221,0.0002939,70.0006,241.7313,268.7138,91.3685,0.00018132,2.071e-05,0.0,0 STARLINK-5848,1 55932U 23037U   23316.94334507  .00002071  00000-0  18132-3 0  9997,2 55932  70.0006 241.7313 0002939 268.7138  91.3685 14.98321221 37496,6950.22,96.108,574.128,570.042,0.0
55932.0,STARLINK-5848,PAYLOAD,2023-11-13 03:26:48,14.98334947,0.0002948,70.0006,241.2263,268.9351,91.147,6.2173e-05,6.49e-06,0.0,0 STARLINK-5848,1 55932U 23037U   23317.14361887  .00000649  00000-0  62173-4 0  9995,2 55932  70.0006 241.2263 0002948 268.9351  91.1470 14.98334947 37864,6950.178,96.107,574.092,569.994,0.0
55932.0,STARLINK-5848,PAYLOAD,2023-11-13 05:02:56,14.98336492,0.000293,70.0007,241.058,268.6845,91.3979,8.0998e-05,8.74e-06,0.0,0 STARLINK-5848,1 55932U 23037U   23317.21037716  .00000874  00000-0  80998-4 0  9999,2 55932  70.0007 241.0580 0002930 268.6845  91.3979 14.98336492 37538,6950.173,96.107,574.074,570.001,0.0
55932.0,STARLINK-5848,PAYLOAD,2023-11-14 03:28:50,14.98327189,0.0002591,70.0015,238.7032,269.5204,90.5658,4.5006e-05,4.44e-06,0.0,0 STARLINK-5848,1 55932U 23037U   23318.14502427  .00000444  00000-0  45006-4 0  9992,2 55932  70.0015 238.7032 0002591 269.5204  90.5658 14.98327189 38016,6950.202,96.107,573.867,570.266,0.0
55932.0,STARLINK-5848,PAYLOAD,2023-11-14 11:29:29,14.98361193,0.000271,70.0017,237.8615,275.5585,84.5265,-0.00058983,-7.129e-05,0.0,0 STARLINK-5848,1 55932U 23037U   23318.47881677 -.00007129  00000-0 -58983-3 0  9991,2 55932  70.0017 237.8615 0002710 275.5585  84.5265 14.98361193 38062,6950.096,96.105,573.845,570.078,0.0
55932.0,STARLINK-5848,PAYLOAD,2023-11-14 17:54:02,14.98334821,0.0002294,70.0028,237.1863,278.5924,81.4975,-7.5696e-05,-9.96e-06,0.0,0 STARLINK-5848,1 55932U 23037U   23318.74586427 -.00000996  00000-0 -75696-4 0  9992,2 55932  70.0028 237.1863 0002294 278.5924  81.4975 14.98334821 38106,6950.178,96.107,573.637,570.449,0.0
55932.0,STARLINK-5848,PAYLOAD,2023-11-15 03:30:51,14.98317267,0.0002219,70.0029,236.1764,277.5218,82.5689,0.00017713,2.02e-05,0.0,0 STARLINK-5848,1 55932U 23037U   23319.14642831  .00002020  00000-0  17713-3 0  9992,2 55932  70.0029 236.1764 0002219 277.5218  82.5689 14.98317267 38163,6950.232,96.108,573.64,570.555,0.0
